{"type":"Feature","properties":{"MUN":"POINT PLEASANT BORO","COUNTY":"OCEAN","MUN_LABEL":"Point Pleasant Borough","MUN_TYPE":"Borough","NAME":"Point Pleasant Borough","GNIS_NAME":"Borough of Point Pleasant","partNames":["Point Pleasant Borough S","Point Pleasant Borough N"]},"geometry":{"type":"MultiPolygon","coordinates":[[[[-74.0549408,40.0861259],[-74.0550256,40.0852121],[-74.0487382,40.0836668],[-74.0485018,40.0819581],[-74.0483272,40.0806959],[-74.0480287,40.0780424],[-74.054058,40.080077],[-74.0540086,40.0801797],[-74.0547865,40.0804424],[-74.0547882,40.080443],[-74.0548142,40.0803482],[-74.0548906,40.0795295],[-74.0549293,40.0792413],[-74.0553218,40.0772559],[-74.0553536,40.0770564],[-74.0553585,40.0768892],[-74.0553417,40.0765576],[-74.0548384,40.0717976],[-74.0521886,40.0714433],[-74.0525352,40.0693002],[-74.0508904,40.0690569],[-74.0495438,40.0688576],[-74.0494223,40.0688398],[-74.0497254,40.0675996],[-74.0499164,40.0668456],[-74.0518683,40.0591388],[-74.0664412,40.0610135],[-74.06737,40.0610599],[-74.068195,40.0609449],[-74.0691184,40.0607336],[-74.0697492,40.0603925],[-74.070296,40.0600832],[-74.0710448,40.0598713],[-74.0725682,40.0597695],[-74.0738037,40.0597148],[-74.0739258,40.0604938],[-74.0740077,40.0608054],[-74.0743822,40.0612362],[-74.0753667,40.0620585],[-74.0757431,40.0624596],[-74.0758135,40.062511],[-74.0759834,40.0625954],[-74.0765008,40.0628019],[-74.0771723,40.0629982],[-74.077956,40.063195],[-74.0784039,40.0633151],[-74.0788511,40.0635213],[-74.0793541,40.0637816],[-74.0799823,40.0642039],[-74.0804707,40.0645611],[-74.0807921,40.0647238],[-74.0814076,40.0649199],[-74.0821912,40.0651381],[-74.0828216,40.065205],[-74.0834802,40.0652397],[-74.0839703,40.0653168],[-74.084159,40.0654036],[-74.0844941,40.0656202],[-74.0848984,40.0659771],[-74.0853305,40.0663771],[-74.0857768,40.0667557],[-74.0861575,40.0671241],[-74.086455,40.0675444],[-74.0866848,40.067891],[-74.086888,40.0682447],[-74.0870882,40.0686647],[-74.0872814,40.0690407],[-74.0874765,40.0694867],[-74.0875772,40.0697543],[-74.0876305,40.0699589],[-74.0876495,40.0702052],[-74.0877003,40.0703739],[-74.0877774,40.0705503],[-74.0878883,40.0707348],[-74.088012,40.0709554],[-74.0880669,40.0710985],[-74.0880736,40.0711158],[-74.0881244,40.0713281],[-74.0881558,40.0716374],[-74.0882687,40.0721304],[-74.0883826,40.0724871],[-74.0884698,40.0727337],[-74.0885306,40.0728282],[-74.088605,40.0729228],[-74.0890452,40.0734536],[-74.0892889,40.0737531],[-74.0894981,40.0741206],[-74.0896863,40.0745824],[-74.0897642,40.0748801],[-74.0899097,40.0754372],[-74.0900566,40.0760255],[-74.0900629,40.0760508],[-74.0901688,40.0765804],[-74.0902146,40.0769054],[-74.0902742,40.0772096],[-74.0903345,40.0773827],[-74.0904155,40.0775297],[-74.0905744,40.0777214],[-74.090648,40.0778214],[-74.0907428,40.0779317],[-74.0908747,40.0780381],[-74.0909275,40.0780729],[-74.0910172,40.0781322],[-74.0911282,40.0781917],[-74.0912472,40.078241],[-74.0913636,40.078278],[-74.0914536,40.0783109],[-74.0915196,40.0783458],[-74.0915512,40.0783866],[-74.0916037,40.0784642],[-74.091643,40.0785396],[-74.0916902,40.0786314],[-74.0917041,40.0786489],[-74.0890341,40.0882397],[-74.0886759,40.089526],[-74.0756154,40.0802744],[-74.0549408,40.0861259]]],[[[-74.0549408,40.0861259],[-74.0756154,40.0802744],[-74.0886759,40.089526],[-74.0862857,40.0981087],[-74.0858874,40.0976174],[-74.0851979,40.0968428],[-74.0844842,40.0961049],[-74.0837935,40.0955324],[-74.08241,40.0947186],[-74.0809065,40.0939778],[-74.079378,40.0934023],[-74.0780642,40.0929563],[-74.0759382,40.09225],[-74.0752452,40.0920636],[-74.0752122,40.092047],[-74.0748396,40.0918599],[-74.0743392,40.0914903],[-74.0739354,40.0909925],[-74.0735329,40.090274],[-74.0733006,40.0899508],[-74.073034,40.0896839],[-74.0728767,40.0895516],[-74.0726644,40.0894435],[-74.0723804,40.0893861],[-74.0720665,40.0893678],[-74.0718323,40.089384],[-74.0716591,40.0894398],[-74.0714455,40.0895541],[-74.0711305,40.0897688],[-74.070167,40.0907396],[-74.0693237,40.0916189],[-74.0687696,40.0921683],[-74.0683844,40.0925162],[-74.0683356,40.0925454],[-74.0678393,40.0926637],[-74.0666343,40.0929509],[-74.0650031,40.0934963],[-74.0636359,40.0939324],[-74.0627236,40.0943518],[-74.0625015,40.0944549],[-74.0624088,40.0945057],[-74.0607879,40.0953389],[-74.0599734,40.0958074],[-74.0599056,40.0958464],[-74.0593489,40.0962474],[-74.0570589,40.0944027],[-74.055541,40.0940046],[-74.0561277,40.0926204],[-74.0561727,40.0924885],[-74.0563421,40.091164],[-74.0564874,40.0911554],[-74.0563873,40.0902041],[-74.0563825,40.090159],[-74.0553727,40.0902051],[-74.0554762,40.089126],[-74.0554399,40.0891235],[-74.0550663,40.0890985],[-74.0548418,40.0890835],[-74.0546676,40.0890719],[-74.0549408,40.0861259]]]]}}
